{
"type": "FeatureCollection",
"name": "iou_territories",
"crs": { "type": "name", "properties": { "name": "urn:ogc:def:crs:OGC:1.3:CRS84" } },
"xy_coordinate_resolution": 0.0001,
"features": [
{ "type": "Feature", "properties": { "utility": "PGE", "utility_name": "Pacific Gas & Electric Company" }, "geometry": { "type": "MultiPolygon", "coordinates": [ [ [ [ -122.3621, 37.8069 ], [ -122.3729, 37.8108 ], [ -122.3777, 37.8303 ], [ -122.3658, 37.8301 ], [ -122.3617, 37.821 ], [ -122.3711, 37.8158 ], [ -122.3589, 37.8147 ], [ -122.3621, 37.8069 ] ] ], [ [ [ -118.8892, 36.077 ], [ -118.949, 36.0776 ], [ -118.95, 36.1345 ], [ -119.1018, 36.1352 ], [ -119.1026, 36.1698 ], [ -118.7286, 36.1661 ], [ -118.7292, 36.1953 ], [ -118.673, 36.194 ], [ -118.6722, 36.2247 ], [ -118.6145, 36.2241 ], [ -118.6145, 36.1609 ], [ -118.667, 36.1602 ], [ -118.6655, 36.131 ], [ -118.7349, 36.1325 ], [ -118.7321, 36.1042 ], [ -118.8895, 36.1062 ], [ -118.8892, 36.077 ] ] ], [ [ [ -119.111, 35.8169 ], [ -119.1112, 35.8517 ], [ -119.0501, 35.8515 ], [ -119.0499, 35.8168 ], [ -119.111, 35.8169 ] ] ], [ [ [ -120.208, 34.4744 ], [ -120.2424, 34.4958 ], [ -120.3367, 34.4899 ], [ -120.382, 34.5186 ], [ -120.4127, 34.5285 ], [ -120.4469, 34.5583 ], [ -120.4699, 34.5596 ], [ -120.4651, 34.5179 ], [ -120.5076, 34.5177 ], [ -120.5813, 34.557 ], [ -120.6234, 34.5537 ], [ -120.6399, 34.5634 ], [ -120.6383, 34.572 ], [ -120.6506, 34.5773 ], [ -120.64, 34.5957 ], [ -120.6433, 34.6035 ], [ -120.6005, 34.7046 ], [ -120.6374, 34.7559 ], [ -120.6168, 34.8141 ], [ -120.6103, 34.8582 ], [ -120.6393, 34.8804 ], [ -120.647, 34.901 ], [ -120.6721, 34.9031 ], [ -120.6312, 35.0489 ], [ -120.6324, 35.1116 ], [ -120.6461, 35.1422 ], [ -120.7142, 35.176 ], [ -120.7514, 35.177 ], [ -120.7541, 35.1592 ], [ -120.7609, 35.1598 ], [ -120.7861, 35.1777 ], [ -120.857, 35.206 ], [ -120.8997, 35.2551 ], [ -120.8723, 35.3114 ], [ -120.8611, 35.3628 ], [ -120.8703, 35.3692 ], [ -120.8643, 35.3745 ], [ -120.8692, 35.4033 ], [ -120.888, 35.4343 ], [ -120.909, 35.4487 ], [ -120.9455, 35.4466 ], [ -120.9681, 35.4599 ], [ -121.0046, 35.4612 ], [ -121.1016, 35.5488 ], [ -121.126, 35.5931 ], [ -121.1667, 35.6354 ], [ -121.1889, 35.6431 ], [ -121.1946, 35.6343 ], [ -121.221, 35.6517 ], [ -121.2422, 35.6517 ], [ -121.2715, 35.6668 ], [ -121.2866, 35.6646 ], [ -121.2898, 35.6894 ], [ -121.3166, 35.7132 ], [ -121.3158, 35.7525 ], [ -121.3276, 35.7597 ], [ -121.3319, 35.7825 ], [ -121.3905, 35.8257 ], [ -121.4131, 35.8553 ], [ -121.4649, 35.8885 ], [ -121.4632, 35.9038 ], [ -121.4747, 35.92 ], [ -121.4687, 35.9267 ], [ -121.4767, 35.9309 ], [ -121.4862, 35.9703 ], [ -121.5031, 36.0003 ], [ -121.5735, 36.0236 ], [ -121.5914, 36.0493 ], [ -121.5929, 36.0651 ], [ -121.6191, 36.0865 ], [ -121.6296, 36.1145 ], [ -121.6758, 36.1635 ], [ -121.7706, 36.223 ], [ -121.8265, 36.2419 ], [ -121.8382, 36.2497 ], [ -121.8516, 36.2777 ], [ -121.9024, 36.3061 ], [ -121.8926, 36.3412 ], [ -121.9073, 36.3573 ], [ -121.9012, 36.386 ], [ -121.9292, 36.4472 ], [ -121.9254, 36.4595 ], [ -121.946, 36.4903 ], [ -121.9383, 36.5052 ], [ -121.9552, 36.5223 ], [ -121.9265, 36.5244 ], [ -121.9335, 36.5432 ], [ -121.9289, 36.5511 ], [ -121.9407, 36.5656 ], [ -121.9537, 36.5608 ], [ -121.9789, 36.58 ], [ -121.9655, 36.5856 ], [ -121.9589, 36.6094 ], [ -121.9432, 36.616 ], [ -121.9358, 36.6374 ], [ -121.9039, 36.6216 ], [ -121.8893, 36.6015 ], [ -121.8578, 36.6119 ], [ -121.8144, 36.6829 ], [ -121.8055, 36.7504 ], [ -121.7881, 36.8068 ], [ -121.8661, 36.937 ], [ -121.9057, 36.969 ], [ -121.9358, 36.9785 ], [ -121.9728, 36.9542 ], [ -122.013, 36.9643 ], [ -122.0226, 36.9625 ], [ -122.0174, 36.9589 ], [ -122.017, 36.9572 ], [ -122.0233, 36.9622 ], [ -122.0265, 36.9504 ], [ -122.0499, 36.9486 ], [ -122.1347, 36.9671 ], [ -122.223, 37.0251 ], [ -122.2967, 37.1109 ], [ -122.3375, 37.1176 ], [ -122.3378, 37.1359 ], [ -122.3605, 37.1493 ], [ -122.3672, 37.1729 ], [ -122.3948, 37.1814 ], [ -122.4051, 37.1958 ], [ -122.4191, 37.2415 ], [ -122.4038, 37.3197 ], [ -122.4025, 37.3221 ], [ -122.4025, 37.3211 ], [ -122.4012, 37.3204 ], [ -122.3967, 37.3213 ], [ -122.3963, 37.3219 ], [ -122.4039, 37.3225 ], [ -122.4009, 37.3596 ], [ -122.4431, 37.4329 ], [ -122.4559, 37.4878 ], [ -122.4724, 37.5005 ], [ -122.4993, 37.4953 ], [ -122.52, 37.5335 ], [ -122.5135, 37.5561 ], [ -122.521, 37.5943 ], [ -122.4999, 37.6025 ], [ -122.4941, 37.652 ], [ -122.5147, 37.7812 ], [ -122.4854, 37.7906 ], [ -122.4777, 37.8111 ], [ -122.4631, 37.8047 ], [ -122.4104, 37.8114 ], [ -122.3857, 37.7908 ], [ -122.3881, 37.7769 ], [ -122.3813, 37.772 ], [ -122.3865, 37.7731 ], [ -122.387, 37.7624 ], [ -122.3791, 37.7599 ], [ -122.384, 37.7545 ], [ -122.3673, 37.7402 ], [ -122.3719, 37.7344 ], [ -122.3567, 37.7286 ], [ -122.3636, 37.7221 ], [ -122.36, 37.7142 ], [ -122.3741, 37.7189 ], [ -122.3802, 37.7112 ], [ -122.3745, 37.7086 ], [ -122.3941, 37.7072 ], [ -122.3878, 37.6787 ], [ -122.3811, 37.6772 ], [ -122.3877, 37.669 ], [ -122.3745, 37.6625 ], [ -122.3805, 37.648 ], [ -122.3935, 37.6456 ], [ -122.3789, 37.6354 ], [ -122.3888, 37.6309 ], [ -122.3717, 37.6286 ], [ -122.355, 37.615 ], [ -122.3587, 37.6093 ], [ -122.3723, 37.6145 ], [ -122.3781, 37.6053 ], [ -122.3603, 37.5921 ], [ -122.3147, 37.5924 ], [ -122.3157, 37.5838 ], [ -122.2952, 37.571 ], [ -122.2849, 37.5757 ], [ -122.2532, 37.5695 ], [ -122.2443, 37.5491 ], [ -122.1957, 37.5368 ], [ -122.1981, 37.5238 ], [ -122.1822, 37.521 ], [ -122.1655, 37.4983 ], [ -122.1347, 37.5068 ], [ -122.1212, 37.47 ], [ -122.0908, 37.4516 ], [ -122.0641, 37.4448 ], [ -122.0194, 37.4617 ], [ -122.0244, 37.4689 ], [ -122.0508, 37.4668 ], [ -122.0557, 37.4958 ], [ -122.0849, 37.5058 ], [ -122.1089, 37.5024 ], [ -122.1121, 37.5297 ], [ -122.1463, 37.5842 ], [ -122.1484, 37.6137 ], [ -122.156, 37.6166 ], [ -122.1506, 37.6207 ], [ -122.1562, 37.6565 ], [ -122.1634, 37.6722 ], [ -122.1892, 37.6983 ], [ -122.1942, 37.6955 ], [ -122.191, 37.7048 ], [ -122.1996, 37.704 ], [ -122.202, 37.7127 ], [ -122.2163, 37.6996 ], [ -122.2512, 37.7239 ], [ -122.2476, 37.7279 ], [ -122.2613, 37.7432 ], [ -122.2382, 37.7502 ], [ -122.2815, 37.771 ], [ -122.2832, 37.7636 ], [ -122.3049, 37.772 ], [ -122.2982, 37.7799 ], [ -122.3324, 37.7821 ], [ -122.3318, 37.8 ], [ -122.3248, 37.8049 ], [ -122.3425, 37.806 ], [ -122.3083, 37.8211 ], [ -122.33, 37.8215 ], [ -122.2949, 37.8294 ], [ -122.2973, 37.8373 ], [ -122.315, 37.8372 ], [ -122.3142, 37.8424 ], [ -122.298, 37.8403 ], [ -122.3005, 37.8526 ], [ -122.3064, 37.8656 ], [ -122.3163, 37.8588 ], [ -122.3247, 37.8746 ], [ -122.3072, 37.8706 ], [ -122.3162, 37.8888 ], [ -122.3276, 37.8885 ], [ -122.3259, 37.8925 ], [ -122.3094, 37.8886 ], [ -122.3116, 37.8967 ], [ -122.3224, 37.8954 ], [ -122.3226, 37.9061 ], [ -122.3366, 37.9106 ], [ -122.3926, 37.908 ], [ -122.3865, 37.9208 ], [ -122.4097, 37.9318 ], [ -122.4292, 37.9618 ], [ -122.4175, 37.9651 ], [ -122.401, 37.9521 ], [ -122.3946, 37.9548 ], [ -122.4013, 37.968 ], [ -122.3705, 37.9753 ], [ -122.3602, 37.9898 ], [ -122.3666, 38.0123 ], [ -122.3331, 38.0013 ], [ -122.3165, 38.0119 ], [ -122.3002, 38.0102 ], [ -122.273, 38.0399 ], [ -122.2642, 38.0406 ], [ -122.2639, 38.0562 ], [ -122.2036, 38.0542 ], [ -122.2012, 38.0645 ], [ -122.2299, 38.0656 ], [ -122.2462, 38.08 ], [ -122.2517, 38.0701 ], [ -122.2687, 38.0677 ], [ -122.2972, 38.1023 ], [ -122.3311, 38.1264 ], [ -122.4043, 38.1536 ], [ -122.4108, 38.1366 ], [ -122.4394, 38.1179 ], [ -122.4945, 38.1123 ], [ -122.4848, 38.0995 ], [ -122.4843, 38.0724 ], [ -122.4987, 38.0157 ], [ -122.4622, 38.0034 ], [ -122.4471, 37.9854 ], [ -122.4559, 37.98 ], [ -122.4676, 37.9846 ], [ -122.477, 37.9713 ], [ -122.4946, 37.9705 ], [ -122.4866, 37.947 ], [ -122.4774, 37.9426 ], [ -122.4891, 37.937 ], [ -122.5039, 37.9432 ], [ -122.5066, 37.9399 ], [ -122.4975, 37.9227 ], [ -122.4749, 37.9175 ], [ -122.4732, 37.9037 ], [ -122.4382, 37.8823 ], [ -122.4504, 37.8721 ], [ -122.4412, 37.8629 ], [ -122.4247, 37.8707 ], [ -122.4184, 37.8531 ], [ -122.4411, 37.8553 ], [ -122.4507, 37.872 ], [ -122.4603, 37.8739 ], [ -122.459, 37.8622 ], [ -122.4739, 37.8749 ], [ -122.4748, 37.8863 ], [ -122.5025, 37.8968 ], [ -122.4971, 37.8774 ], [ -122.5121, 37.8885 ], [ -122.5221, 37.8855 ], [ -122.4781, 37.8592 ], [ -122.4727, 37.8321 ], [ -122.499, 37.8199 ], [ -122.523, 37.8251 ], [ -122.5279, 37.8152 ], [ -122.5619, 37.852 ], [ -122.5816, 37.8569 ], [ -122.602, 37.8756 ], [ -122.6277, 37.8809 ], [ -122.6529, 37.9022 ], [ -122.6821, 37.9086 ], [ -122.7015, 37.8939 ], [ -122.7265, 37.9032 ], [ -122.7369, 37.9257 ], [ -122.7834, 37.9482 ], [ -122.7991, 37.9784 ], [ -122.8546, 38.0157 ], [ -122.9275, 38.0292 ], [ -122.9374, 38.0463 ], [ -122.9162, 38.0684 ], [ -122.933, 38.0641 ], [ -122.9355, 38.0849 ], [ -122.9418, 38.0632 ], [ -122.9526, 38.0586 ], [ -122.9514, 38.0471 ], [ -122.936, 38.034 ], [ -122.965, 38.0252 ], [ -122.9835, 38.005 ], [ -122.9829, 37.9979 ], [ -122.9643, 37.9902 ], [ -123.024, 37.995 ], [ -123.0118, 38.0034 ], [ -122.9859, 38.0557 ], [ -122.9487, 38.1547 ], [ -122.9542, 38.1765 ], [ -122.9683, 38.1824 ], [ -122.9682, 38.2026 ], [ -122.9953, 38.2408 ], [ -122.9465, 38.202 ], [ -122.9501, 38.1937 ], [ -122.9316, 38.1877 ], [ -122.8935, 38.1327 ], [ -122.856, 38.1016 ], [ -122.8509, 38.1067 ], [ -122.901, 38.1655 ], [ -122.9252, 38.2159 ], [ -122.9336, 38.2115 ], [ -122.9481, 38.2202 ], [ -122.953, 38.2144 ], [ -122.9543, 38.2327 ], [ -122.9718, 38.2315 ], [ -122.9676, 38.2492 ], [ -122.9778, 38.2664 ], [ -122.9737, 38.2707 ], [ -122.9865, 38.2731 ], [ -123.0153, 38.305 ], [ -123.041, 38.3136 ], [ -123.0521, 38.3096 ], [ -123.0535, 38.2994 ], [ -123.065, 38.3028 ], [ -123.0782, 38.3231 ], [ -123.0686, 38.3344 ], [ -123.0683, 38.3599 ], [ -123.0856, 38.3905 ], [ -123.0966, 38.3939 ], [ -123.1018, 38.4132 ], [ -123.1283, 38.4395 ], [ -123.1297, 38.4512 ], [ -123.1925, 38.4897 ], [ -123.255, 38.512 ], [ -123.2795, 38.5361 ], [ -123.3339, 38.5658 ], [ -123.3474, 38.5902 ], [ -123.3718, 38.6063 ], [ -123.3665, 38.6127 ], [ -123.3899, 38.6298 ], [ -123.4562, 38.7129 ], [ -123.5251, 38.7496 ], [ -123.5345, 38.7693 ], [ -123.5742, 38.8 ], [ -123.6024, 38.8075 ], [ -123.6053, 38.8228 ], [ -123.6474, 38.8455 ], [ -123.6598, 38.8725 ], [ -123.6813, 38.8826 ], [ -123.7111, 38.9156 ], [ -123.7278, 38.9189 ], [ -123.7263, 38.9364 ], [ -123.7423, 38.9562 ], [ -123.7251, 38.9597 ], [ -123.7006, 38.9967 ], [ -123.6904, 39.0229 ], [ -123.6912, 39.0508 ], [ -123.7202, 39.1348 ], [ -123.7365, 39.1396 ], [ -123.7347, 39.1583 ], [ -123.7608, 39.1921 ], [ -123.7718, 39.195 ], [ -123.7768, 39.2138 ], [ -123.769, 39.2158 ], [ -123.7778, 39.2244 ], [ -123.7679, 39.2253 ], [ -123.7789, 39.2309 ], [ -123.7745, 39.2402 ], [ -123.7868, 39.253 ], [ -123.7917, 39.2733 ], [ -123.8039, 39.2791 ], [ -123.7939, 39.3022 ], [ -123.811, 39.3047 ], [ -123.8007, 39.3193 ], [ -123.8277, 39.3484 ], [ -123.821, 39.3537 ], [ -123.8253, 39.3608 ], [ -123.8169, 39.3617 ], [ -123.8263, 39.3687 ], [ -123.8176, 39.3767 ], [ -123.8222, 39.4065 ], [ -123.8132, 39.4172 ], [ -123.8194, 39.4238 ], [ -123.8093, 39.4277 ], [ -123.8205, 39.4394 ], [ -123.8127, 39.442 ], [ -123.8054, 39.4894 ], [ -123.7837, 39.5103 ], [ -123.7655, 39.5592 ], [ -123.7887, 39.5997 ], [ -123.7825, 39.6202 ], [ -123.7947, 39.6895 ], [ -123.8082, 39.7107 ], [ -123.8306, 39.7234 ], [ -123.849, 39.827 ], [ -123.9043, 39.8595 ], [ -123.9298, 39.9095 ], [ -123.9549, 39.9223 ], [ -123.9804, 39.963 ], [ -124.037, 40.0143 ], [ -124.0806, 40.0299 ], [ -124.0804, 40.0657 ], [ -124.1108, 40.104 ], [ -124.1881, 40.1308 ], [ -124.2158, 40.1619 ], [ -124.2903, 40.2034 ], [ -124.3611, 40.2577 ], [ -124.3637, 40.276 ], [ -124.3481, 40.3171 ], [ -124.362, 40.3412 ], [ -124.3685, 40.3842 ], [ -124.4097, 40.4382 ], [ -124.385, 40.4903 ], [ -124.3874, 40.5104 ], [ -124.3174, 40.6361 ], [ -124.3125, 40.6411 ], [ -124.3163, 40.6337 ], [ -124.3125, 40.6289 ], [ -124.3123, 40.6375 ], [ -124.3034, 40.6248 ], [ -124.303, 40.6342 ], [ -124.2877, 40.6261 ], [ -124.2931, 40.6321 ], [ -124.2845, 40.6365 ], [ -124.3059, 40.6394 ], [ -124.2987, 40.6579 ], [ -124.2813, 40.6632 ], [ -124.2935, 40.6686 ], [ -124.3076, 40.6413 ], [ -124.3111, 40.645 ], [ -124.2347, 40.7568 ], [ -124.2267, 40.7441 ], [ -124.2411, 40.7377 ], [ -124.2671, 40.7008 ], [ -124.2321, 40.6904 ], [ -124.2228, 40.6777 ], [ -124.2184, 40.6764 ], [ -124.2154, 40.6773 ], [ -124.2156, 40.6752 ], [ -124.2128, 40.6747 ], [ -124.2173, 40.6797 ], [ -124.224, 40.6798 ], [ -124.2234, 40.6994 ], [ -124.2029, 40.6985 ], [ -124.2134, 40.7022 ], [ -124.2234, 40.7233 ], [ -124.2146, 40.7357 ], [ -124.2221, 40.74 ], [ -124.1982, 40.7524 ], [ -124.2024, 40.7718 ], [ -124.1948, 40.7561 ], [ -124.198, 40.7663 ], [ -124.1834, 40.8 ], [ -124.1601, 40.8106 ], [ -124.1246, 40.8057 ], [ -124.0829, 40.8314 ], [ -124.0826, 40.8464 ], [ -124.0978, 40.8598 ], [ -124.1184, 40.8526 ], [ -124.1358, 40.8646 ], [ -124.1532, 40.8641 ], [ -124.1502, 40.8586 ], [ -124.1583, 40.8584 ], [ -124.1943, 40.7894 ], [ -124.2215, 40.7596 ], [ -124.2341, 40.7653 ], [ -124.1591, 40.875 ], [ -124.1176, 40.9874 ], [ -124.1114, 41.0275 ], [ -124.1296, 41.0516 ], [ -124.1534, 41.0535 ], [ -124.1489, 41.0617 ], [ -124.1595, 41.0695 ], [ -124.1545, 41.0872 ], [ -124.1645, 41.1012 ], [ -124.159, 41.121 ], [ -124.1655, 41.1298 ], [ -124.1619, 41.1412 ], [ -124.148, 41.1411 ], [ -124.1403, 41.15 ], [ -124.1071, 41.2287 ], [ -124.0725, 41.3746 ], [ -124.0651, 41.4646 ], [ -123.7708, 41.4641 ], [ -123.7701, 41.3808 ], [ -123.5385, 41.3824 ], [ -123.4871, 41.395 ], [ -123.4448, 41.3787 ], [ -123.4463, 41.3724 ], [ -123.4651, 41.3779 ], [ -123.4824, 41.3537 ], [ -123.4782, 41.3285 ], [ -123.4635, 41.3177 ], [ -123.4565, 41.3002 ], [ -123.4619, 41.2825 ], [ -123.4438, 41.273 ], [ -123.4426, 41.2512 ], [ -123.455, 41.2364 ], [ -123.4343, 41.223 ], [ -123.435, 41.2126 ], [ -123.3813, 41.1517 ], [ -123.3538, 41.1632 ], [ -123.3384, 41.1557 ], [ -123.3358, 40.8821 ], [ -123.3137, 40.8819 ], [ -123.3124, 40.7711 ], [ -123.5135, 40.7623 ], [ -123.5092, 40.7006 ], [ -123.5519, 40.7 ], [ -123.5526, 40.6345 ], [ -123.4857, 40.6345 ], [ -123.4859, 40.6021 ], [ -123.4495, 40.6015 ], [ -123.4389, 40.5847 ], [ -123.4429, 40.5712 ], [ -123.4612, 40.5563 ], [ -123.4471, 40.5197 ], [ -123.4222, 40.4944 ], [ -123.4063, 40.4117 ], [ -123.3552, 40.3782 ], [ -123.3556, 40.3701 ], [ -123.3099, 40.3694 ], [ -123.3057, 40.3523 ], [ -123.2813, 40.33 ], [ -123.2585, 40.3218 ], [ -123.2285, 40.2915 ], [ -123.1676, 40.2665 ], [ -123.1601, 40.2565 ], [ -123.1623, 40.2304 ], [ -122.9765, 40.2256 ], [ -122.9855, 40.2489 ], [ -123.0191, 40.263 ], [ -123.0442, 40.2642 ], [ -123.0661, 40.2855 ], [ -123.069, 40.3079 ], [ -123.0618, 40.3128 ], [ -123.0687, 40.3322 ], [ -123.0568, 40.3491 ], [ -123.0643, 40.4139 ], [ -123.0098, 40.414 ], [ -122.9454, 40.4254 ], [ -122.9311, 40.4456 ], [ -122.9014, 40.4454 ], [ -122.8836, 40.4748 ], [ -122.8469, 40.491 ], [ -122.8518, 40.5008 ], [ -122.8461, 40.5049 ], [ -122.7932, 40.5146 ], [ -122.7825, 40.5318 ], [ -122.7848, 40.5413 ], [ -122.767, 40.5553 ], [ -122.744, 40.5538 ], [ -122.7411, 40.5644 ], [ -122.7228, 40.5752 ], [ -122.6951, 40.5727 ], [ -122.7107, 40.6127 ], [ -122.7098, 40.6313 ], [ -122.7364, 40.6364 ], [ -122.7271, 40.6505 ], [ -122.7525, 40.6897 ], [ -122.7224, 40.6954 ], [ -122.7086, 40.7214 ], [ -122.7173, 40.7472 ], [ -122.6709, 40.7725 ], [ -122.6585, 40.7872 ], [ -122.6616, 40.8002 ], [ -122.6553, 40.8082 ], [ -122.6661, 40.826 ], [ -122.6555, 40.8415 ], [ -122.6397, 40.8452 ], [ -122.6247, 40.8795 ], [ -122.5886, 40.8971 ], [ -122.5729, 40.9323 ], [ -122.1716, 40.9301 ], [ -122.1742, 41.0966 ], [ -122.1411, 41.099 ], [ -122.1439, 41.1424 ], [ -122.1169, 41.1442 ], [ -122.1216, 41.181 ], [ -121.8932, 41.1808 ], [ -121.8132, 41.0985 ], [ -121.7002, 41.213 ], [ -121.5788, 41.2113 ], [ -121.5223, 41.2597 ], [ -121.4448, 41.2587 ], [ -121.4447, 41.1808 ], [ -121.3786, 41.1794 ], [ -121.3785, 41.1871 ], [ -121.3577, 41.1869 ], [ -121.3578, 41.1792 ], [ -121.2216, 41.1797 ], [ -121.2248, 41.1532 ], [ -121.158, 41.1579 ], [ -121.1522, 41.1387 ], [ -121.0951, 41.1435 ], [ -121.094, 41.1237 ], [ -121.1103, 41.1227 ], [ -121.1104, 41.0983 ], [ -121.1333, 41.0984 ], [ -121.1341, 40.9976 ], [ -120.879, 40.9994 ], [ -120.8813, 40.9191 ], [ -120.7969, 40.916 ], [ -120.7896, 40.7677 ], [ -120.9142, 40.7604 ], [ -120.9044, 40.588 ], [ -120.9686, 40.5891 ], [ -120.9632, 40.5135 ], [ -120.979, 40.5121 ], [ -120.9742, 40.2209 ], [ -120.9462, 40.2209 ], [ -120.9471, 40.2065 ], [ -120.928, 40.2065 ], [ -120.9287, 40.192 ], [ -120.8907, 40.1922 ], [ -120.8907, 40.1994 ], [ -120.8718, 40.1994 ], [ -120.8718, 40.2417 ], [ -120.853, 40.2416 ], [ -120.853, 40.2489 ], [ -120.8341, 40.2562 ], [ -120.8338, 40.2707 ], [ -120.7959, 40.2776 ], [ -120.7963, 40.3017 ], [ -120.7739, 40.3013 ], [ -120.7644, 40.316 ], [ -120.6724, 40.3083 ], [ -120.674, 40.1558 ], [ -120.5594, 40.1537 ], [ -120.562, 39.8293 ], [ -120.583, 39.8193 ], [ -120.7746, 39.9956 ], [ -120.87, 39.9961 ], [ -120.87, 39.9093 ], [ -120.9037, 39.9121 ], [ -120.9051, 39.8282 ], [ -120.8236, 39.8222 ], [ -120.8137, 39.8061 ], [ -120.7865, 39.8125 ], [ -120.7823, 39.7934 ], [ -120.7312, 39.7703 ], [ -120.7317, 39.7576 ], [ -120.5868, 39.7531 ], [ -120.5873, 39.7007 ], [ -120.4961, 39.7006 ], [ -120.4977, 39.6318 ], [ -120.4842, 39.6319 ], [ -120.4838, 39.6063 ], [ -120.4983, 39.6062 ], [ -120.5051, 39.4454 ], [ -120.451, 39.4418 ], [ -120.4536, 39.4129 ], [ -120.3425, 39.4103 ], [ -120.3471, 39.3589 ], [ -120.3013, 39.3598 ], [ -120.3044, 39.3119 ], [ -120.3225, 39.293 ], [ -120.2936, 39.2802 ], [ -120.2987, 39.2592 ], [ -120.2703, 39.2458 ], [ -120.2907, 39.2075 ], [ -120.2869, 39.1912 ], [ -120.2791, 39.1843 ], [ -120.2352, 39.1838 ], [ -120.2525, 39.1529 ], [ -120.2287, 39.1293 ], [ -120.2396, 39.0798 ], [ -120.2055, 39.0658 ], [ -120.2012, 39.0513 ], [ -120.2095, 39.0198 ], [ -120.1873, 38.9923 ], [ -120.1438, 38.9777 ], [ -120.1498, 38.9553 ], [ -120.1422, 38.9438 ], [ -120.1602, 38.9267 ], [ -120.1631, 38.9119 ], [ -120.108, 38.8684 ], [ -120.0724, 38.8681 ], [ -120.0234, 38.8201 ], [ -120.0237, 38.8024 ], [ -120.043, 38.7974 ], [ -120.0538, 38.7793 ], [ -120.0428, 38.7656 ], [ -120.0575, 38.7491 ], [ -120.0554, 38.7272 ], [ -120.0132, 38.7002 ], [ -119.9829, 38.6492 ], [ -119.9507, 38.656 ], [ -119.9399, 38.6479 ], [ -119.9377, 38.6292 ], [ -119.9218, 38.6237 ], [ -119.9149, 38.5907 ], [ -119.9058, 38.5848 ], [ -119.8427, 38.5896 ], [ -119.8251, 38.5404 ], [ -119.7852, 38.5137 ], [ -119.7696, 38.5122 ], [ -119.7487, 38.4928 ], [ -119.6484, 38.4825 ], [ -119.5449, 38.4868 ], [ -119.546, 38.4742 ], [ -119.558, 38.466 ], [ -119.5564, 38.4473 ], [ -119.5702, 38.4347 ], [ -119.5624, 38.4095 ], [ -119.5837, 38.3966 ], [ -119.602, 38.4056 ], [ -119.6192, 38.3966 ], [ -119.6189, 38.3825 ], [ -119.6068, 38.3668 ], [ -119.6355, 38.3539 ], [ -119.6279, 38.3484 ], [ -119.645, 38.3207 ], [ -119.6425, 38.2938 ], [ -119.6513, 38.2864 ], [ -119.6132, 38.2615 ], [ -119.6218, 38.2525 ], [ -119.6049, 38.2356 ], [ -119.6253, 38.2287 ], [ -119.6292, 38.1961 ], [ -119.5869, 38.1851 ], [ -119.5771, 38.1576 ], [ -119.5465, 38.154 ], [ -119.5469, 38.1437 ], [ -119.5071, 38.1371 ], [ -119.5082, 38.1525 ], [ -119.4963, 38.1569 ], [ -119.4881, 38.1325 ], [ -119.4688, 38.1276 ], [ -119.4731, 38.118 ], [ -119.459, 38.108 ], [ -119.4661, 38.1018 ], [ -119.4603, 38.0963 ], [ -119.4413, 38.0955 ], [ -119.4298, 38.1179 ], [ -119.421, 38.1077 ], [ -119.3985, 38.1068 ], [ -119.3582, 38.082 ], [ -119.349, 38.0863 ], [ -119.3362, 38.0662 ], [ -119.3261, 38.065 ], [ -119.3053, 38.0243 ], [ -119.3182, 37.989 ], [ -119.315, 37.9801 ], [ -119.3236, 37.9703 ], [ -119.3146, 37.9654 ], [ -119.3094, 37.9462 ], [ -119.2663, 37.9276 ], [ -119.2646, 37.9125 ], [ -119.2103, 37.8999 ], [ -119.1996, 37.8849 ], [ -119.2107, 37.8794 ], [ -119.2166, 37.8535 ], [ -119.2156, 37.8471 ], [ -119.2019, 37.8482 ], [ -119.2044, 37.8299 ], [ -119.2176, 37.8186 ], [ -119.2052, 37.8121 ], [ -119.203, 37.7954 ], [ -119.2426, 37.7701 ], [ -119.2553, 37.7456 ], [ -119.2679, 37.738 ], [ -119.2576, 37.7251 ], [ -119.2428, 37.7286 ], [ -119.2163, 37.7141 ], [ -119.1924, 37.738 ], [ -119.1243, 37.734 ], [ -119.0652, 37.6846 ], [ -119.0546, 37.6452 ], [ -119.031, 37.6276 ], [ -119.0351, 37.606 ], [ -119.0231, 37.5861 ], [ -119.314, 37.3526 ], [ -119.3132, 37.3386 ], [ -119.3271, 37.3357 ], [ -119.3166, 37.3248 ], [ -119.3355, 37.3113 ], [ -119.327, 37.2923 ], [ -119.3323, 37.2744 ], [ -119.3222, 37.2538 ], [ -119.3378, 37.2193 ], [ -119.3304, 37.2063 ], [ -119.3607, 37.1804 ], [ -119.3622, 37.1676 ], [ -119.391, 37.1498 ], [ -119.3932, 37.091 ], [ -119.3228, 37.0947 ], [ -119.3243, 37.0626 ], [ -119.2166, 37.0594 ], [ -119.2162, 37.035 ], [ -119.0623, 37.029 ], [ -119.0543, 37.1934 ], [ -118.7298, 37.1818 ], [ -118.7123, 37.1935 ], [ -118.6693, 37.188 ], [ -118.6641, 37.1784 ], [ -118.6731, 37.1675 ], [ -118.6542, 37.1411 ], [ -118.5929, 37.1382 ], [ -118.5855, 37.1239 ], [ -118.5681, 37.1231 ], [ -118.5652, 37.1136 ], [ -118.5309, 37.1122 ], [ -118.4854, 37.0773 ], [ -118.4364, 37.0605 ], [ -118.4341, 37.05 ], [ -118.4409, 37.0461 ], [ -118.4229, 37.027 ], [ -118.4268, 37.0116 ], [ -118.4128, 36.9995 ], [ -118.4207, 36.9907 ], [ -118.4037, 36.9717 ], [ -118.4041, 36.9573 ], [ -118.397, 36.9582 ], [ -118.3855, 36.9413 ], [ -118.3613, 36.888 ], [ -118.3704, 36.8714 ], [ -118.3617, 36.8445 ], [ -118.3931, 36.8304 ], [ -118.374, 36.8004 ], [ -118.3803, 36.7835 ], [ -118.3694, 36.75 ], [ -118.3387, 36.7286 ], [ -118.334, 36.7062 ], [ -118.3641, 36.6947 ], [ -118.3646, 36.6885 ], [ -118.4035, 36.6989 ], [ -118.4515, 36.6544 ], [ -118.4725, 36.614 ], [ -118.4872, 36.6037 ], [ -118.5534, 36.5984 ], [ -118.6936, 36.6539 ], [ -118.7058, 36.6685 ], [ -118.7357, 36.6661 ], [ -118.7485, 36.6779 ], [ -118.7646, 36.68 ], [ -118.8184, 36.6648 ], [ -118.8419, 36.6446 ], [ -118.862, 36.645 ], [ -118.8755, 36.6244 ], [ -118.9008, 36.6183 ], [ -118.9026, 36.5968 ], [ -118.9776, 36.5973 ], [ -118.9759, 36.5686 ], [ -119.0375, 36.5691 ], [ -119.0374, 36.5978 ], [ -119.0846, 36.5981 ], [ -119.0867, 36.4878 ], [ -119.0405, 36.4886 ], [ -119.0405, 36.4547 ], [ -119.0949, 36.4544 ], [ -119.0953, 36.3965 ], [ -119.1117, 36.3965 ], [ -119.1112, 36.4068 ], [ -119.1581, 36.407 ], [ -119.1573, 36.4215 ], [ -119.2165, 36.4669 ], [ -119.2535, 36.4674 ], [ -119.2533, 36.4825 ], [ -119.317, 36.4834 ], [ -119.3206, 36.4394 ], [ -119.3766, 36.4404 ], [ -119.377, 36.4335 ], [ -119.4338, 36.4282 ], [ -119.4343, 36.4156 ], [ -119.4601, 36.4164 ], [ -119.4609, 36.3981 ], [ -119.4984, 36.3992 ], [ -119.4998, 36.3847 ], [ -119.5263, 36.3855 ], [ -119.527, 36.3697 ], [ -119.5514, 36.3704 ], [ -119.5595, 36.2171 ], [ -119.5253, 36.2161 ], [ -119.5265, 36.17 ], [ -119.47, 36.1633 ], [ -119.4703, 36.1393 ], [ -119.4796, 36.1396 ], [ -119.4818, 36.0563 ], [ -119.425, 36.0546 ], [ -119.4277, 35.9612 ], [ -119.3602, 35.9591 ], [ -119.3624, 35.9106 ], [ -119.3516, 35.9102 ], [ -119.3532, 35.8563 ], [ -119.3182, 35.8562 ], [ -119.3185, 35.7903 ], [ -119.3416, 35.7903 ], [ -119.2294, 35.715 ], [ -119.2307, 35.7008 ], [ -119.2151, 35.6692 ], [ -118.8021, 35.6541 ], [ -118.802, 35.4531 ], [ -118.6766, 35.4485 ], [ -118.6897, 35.227 ], [ -118.6836, 35.1968 ], [ -118.7352, 35.1328 ], [ -118.6683, 35.0796 ], [ -118.6251, 35.0054 ], [ -118.6302, 34.906 ], [ -118.6496, 34.8891 ], [ -118.7767, 34.8508 ], [ -118.7824, 34.8048 ], [ -118.822, 34.8063 ], [ -118.8226, 34.8157 ], [ -118.8731, 34.8152 ], [ -118.8727, 34.8227 ], [ -118.8949, 34.8229 ], [ -118.8943, 34.8361 ], [ -119.0157, 34.8398 ], [ -119.0165, 34.8564 ], [ -119.3762, 34.8707 ], [ -119.3793, 34.8983 ], [ -119.4403, 34.8975 ], [ -119.4387, 34.7207 ], [ -119.7362, 34.7264 ], [ -119.7402, 34.5787 ], [ -119.7809, 34.5362 ], [ -119.8468, 34.5378 ], [ -119.8477, 34.5089 ], [ -120.1211, 34.5158 ], [ -120.1225, 34.4933 ], [ -120.1706, 34.4942 ], [ -120.1709, 34.4847 ], [ -120.2037, 34.4856 ], [ -120.208, 34.4744 ] ] ], [ [ [ -121.7133, 38.0055 ], [ -121.7284, 38.0122 ], [ -121.7261, 38.0169 ], [ -121.7309, 38.0123 ], [ -121.7333, 38.0204 ], [ -121.7399, 38.0192 ], [ -121.7334, 38.0142 ], [ -121.7596, 38.0202 ], [ -121.7844, 38.0149 ], [ -121.8382, 38.0242 ], [ -121.8495, 38.0547 ], [ -121.8557, 38.0606 ], [ -121.8556, 38.0497 ], [ -121.8838, 38.0378 ], [ -122.0181, 38.0592 ], [ -122.0704, 38.0535 ], [ -122.1459, 38.0219 ], [ -122.2029, 38.054 ], [ -122.1879, 38.0706 ], [ -122.1634, 38.0533 ], [ -122.1653, 38.044 ], [ -122.1301, 38.0445 ], [ -122.1146, 38.068 ], [ -122.0689, 38.1065 ], [ -122.0619, 38.1365 ], [ -122.0106, 38.1333 ], [ -122.0009, 38.1262 ], [ -122.0011, 38.1381 ], [ -121.9837, 38.1137 ], [ -122.0202, 38.0964 ], [ -121.9726, 38.0739 ], [ -121.961, 38.0805 ], [ -121.9511, 38.0752 ], [ -121.9485, 38.0801 ], [ -121.9115, 38.0828 ], [ -121.9175, 38.0815 ], [ -121.9068, 38.0753 ], [ -121.9317, 38.0524 ], [ -121.8986, 38.0502 ], [ -121.869, 38.0627 ], [ -121.8659, 38.0717 ], [ -121.8377, 38.0778 ], [ -121.8016, 38.0627 ], [ -121.7132, 38.1122 ], [ -121.6858, 38.1575 ], [ -121.6803, 38.1553 ], [ -121.6874, 38.1296 ], [ -121.7112, 38.0854 ], [ -121.7393, 38.084 ], [ -121.7899, 38.0573 ], [ -121.7833, 38.0513 ], [ -121.7881, 38.0442 ], [ -121.7858, 38.0266 ], [ -121.7994, 38.0353 ], [ -121.7979, 38.026 ], [ -121.8105, 38.0285 ], [ -121.8215, 38.042 ], [ -121.823, 38.0353 ], [ -121.8294, 38.0376 ], [ -121.8322, 38.0421 ], [ -121.8002, 38.0531 ], [ -121.8379, 38.0623 ], [ -121.8338, 38.0564 ], [ -121.8344, 38.0493 ], [ -121.8318, 38.0409 ], [ -121.8228, 38.0277 ], [ -121.8126, 38.0226 ], [ -121.7855, 38.0265 ], [ -121.7845, 38.0391 ], [ -121.7451, 38.0303 ], [ -121.6939, 38.0552 ], [ -121.7085, 38.0466 ], [ -121.6933, 38.0547 ], [ -121.694, 38.0424 ], [ -121.724, 38.0272 ], [ -121.6934, 38.027 ], [ -121.6822, 38.0168 ], [ -121.6979, 38.0069 ], [ -121.7097, 38.0144 ], [ -121.7133, 38.0055 ] ] ] ] } },
{ "type": "Feature", "properties": { "utility": "SCE", "utility_name": "Southern California Edison Company" }, "geometry": { "type": "MultiPolygon", "coordinates": [ [ [ [ -118.4438, 34.2734 ], [ -118.456, 34.2849 ], [ -118.4325, 34.3047 ], [ -118.4157, 34.2939 ], [ -118.4438, 34.2734 ] ] ], [ [ [ -117.8988, 34.1505 ], [ -117.9076, 34.1506 ], [ -117.9076, 34.1579 ], [ -117.8988, 34.1578 ], [ -117.8988, 34.1505 ] ] ], [ [ [ -118.3488, 34.1314 ], [ -118.3623, 34.1386 ], [ -118.3612, 34.1427 ], [ -118.345, 34.1424 ], [ -118.3488, 34.1314 ] ] ], [ [ [ -118.4097, 34.1089 ], [ -118.4174, 34.1052 ], [ -118.4174, 34.1125 ], [ -118.4097, 34.1089 ] ] ], [ [ [ -118.3575, 34.0757 ], [ -118.3585, 34.0761 ], [ -118.3575, 34.0761 ], [ -118.3575, 34.0757 ] ] ], [ [ [ -118.4062, 34.0525 ], [ -118.4273, 34.0906 ], [ -118.4115, 34.0923 ], [ -118.4087, 34.1015 ], [ -118.4009, 34.094 ], [ -118.4, 34.111 ], [ -118.3911, 34.1124 ], [ -118.3958, 34.0911 ], [ -118.3685, 34.098 ], [ -118.3434, 34.0944 ], [ -118.3528, 34.0871 ], [ -118.3769, 34.0886 ], [ -118.3703, 34.0802 ], [ -118.3907, 34.0721 ], [ -118.3759, 34.07 ], [ -118.3722, 34.0622 ], [ -118.4062, 34.0525 ] ] ], [ [ [ -117.3479, 34.0519 ], [ -117.353, 34.069 ], [ -117.3441, 34.0686 ], [ -117.3441, 34.0806 ], [ -117.3379, 34.0814 ], [ -117.3361, 34.0539 ], [ -117.3479, 34.0519 ] ] ], [ [ [ -118.4523, 34.0471 ], [ -118.468, 34.0609 ], [ -118.4667, 34.0677 ], [ -118.4589, 34.0581 ], [ -118.4547, 34.0668 ], [ -118.4458, 34.0554 ], [ -118.4523, 34.0471 ] ] ], [ [ [ -117.2799, 34.0287 ], [ -117.2834, 34.0224 ], [ -117.2831, 34.0288 ], [ -117.2799, 34.0287 ] ] ], [ [ [ -118.2046, 34.009 ], [ -118.2049, 34.0064 ], [ -118.2077, 34.0088 ], [ -118.2046, 34.009 ] ] ], [ [ [ -118.4837, 33.9954 ], [ -118.5177, 34.0249 ], [ -118.4945, 34.0505 ], [ -118.4838, 34.0414 ], [ -118.4745, 34.0451 ], [ -118.4436, 34.0166 ], [ -118.4837, 33.9954 ] ] ], [ [ [ -118.4092, 33.9813 ], [ -118.4151, 33.9845 ], [ -118.4139, 33.9854 ], [ -118.4092, 33.9813 ] ] ], [ [ [ -118.3805, 33.9764 ], [ -118.4062, 33.9894 ], [ -118.4027, 34.0035 ], [ -118.4059, 33.9993 ], [ -118.4143, 34.0036 ], [ -118.4202, 33.9974 ], [ -118.4311, 33.9963 ], [ -118.4309, 33.9892 ], [ -118.4485, 33.9934 ], [ -118.4205, 33.9986 ], [ -118.4215, 34.0104 ], [ -118.3695, 34.0353 ], [ -118.3813, 34.0207 ], [ -118.3732, 34.0119 ], [ -118.3576, 34.0091 ], [ -118.3579, 33.9972 ], [ -118.3357, 34.0082 ], [ -118.3317, 33.9964 ], [ -118.3373, 33.9885 ], [ -118.3527, 33.9894 ], [ -118.3527, 33.9831 ], [ -118.3718, 33.983 ], [ -118.3805, 33.9764 ] ] ], [ [ [ -118.4514, 33.9643 ], [ -118.4635, 33.9811 ], [ -118.4551, 33.9865 ], [ -118.4323, 33.975 ], [ -118.4514, 33.9643 ] ] ], [ [ [ -118.2971, 33.8583 ], [ -118.2993, 33.8473 ], [ -118.2993, 33.8583 ], [ -118.2971, 33.8583 ] ] ], [ [ [ -118.1583, 33.7535 ], [ -118.1613, 33.7523 ], [ -118.1606, 33.7535 ], [ -118.1583, 33.7535 ] ] ], [ [ [ -118.161, 33.7425 ], [ -118.1639, 33.7405 ], [ -118.163, 33.7431 ], [ -118.161, 33.7425 ] ] ], [ [ [ -118.1376, 33.7403 ], [ -118.1407, 33.7401 ], [ -118.139, 33.741 ], [ -118.1376, 33.7403 ] ] ], [ [ [ -118.2968, 33.7379 ], [ -118.3092, 33.7379 ], [ -118.3091, 33.7416 ], [ -118.298, 33.7442 ], [ -118.2968, 33.7379 ] ] ], [ [ [ -118.333, 33.722 ], [ -118.3806, 33.7421 ], [ -118.398, 33.7362 ], [ -118.4117, 33.7409 ], [ -118.4284, 33.7739 ], [ -118.3945, 33.8039 ], [ -118.3904, 33.8346 ], [ -118.4298, 33.9163 ], [ -118.4222, 33.9163 ], [ -118.4288, 33.931 ], [ -118.3683, 33.929 ], [ -118.3701, 33.9527 ], [ -118.3789, 33.9531 ], [ -118.3702, 33.9817 ], [ -118.3353, 33.9818 ], [ -118.3331, 33.9673 ], [ -118.3178, 33.971 ], [ -118.3134, 33.9383 ], [ -118.3025, 33.9455 ], [ -118.3002, 33.9595 ], [ -118.2917, 33.9595 ], [ -118.2906, 33.8663 ], [ -118.3092, 33.8657 ], [ -118.3117, 33.7629 ], [ -118.3009, 33.7577 ], [ -118.3091, 33.7578 ], [ -118.3096, 33.7469 ], [ -118.3184, 33.7469 ], [ -118.3186, 33.732 ], [ -118.333, 33.722 ] ] ], [ [ [ -118.4867, 33.4512 ], [ -118.4874, 33.4508 ], [ -118.4875, 33.4514 ], [ -118.4867, 33.4512 ] ] ], [ [ [ -118.3257, 33.2983 ], [ -118.3744, 33.3196 ], [ -118.4225, 33.3165 ], [ -118.4653, 33.3257 ], [ -118.489, 33.3567 ], [ -118.4736, 33.3829 ], [ -118.4881, 33.419 ], [ -118.5066, 33.4272 ], [ -118.5009, 33.4358 ], [ -118.5127, 33.4217 ], [ -118.5362, 33.4344 ], [ -118.5636, 33.4343 ], [ -118.6063, 33.4787 ], [ -118.5385, 33.4776 ], [ -118.5015, 33.4531 ], [ -118.4976, 33.4415 ], [ -118.4773, 33.4482 ], [ -118.4449, 33.4284 ], [ -118.3703, 33.409 ], [ -118.368, 33.3889 ], [ -118.3075, 33.33 ], [ -118.3053, 33.3079 ], [ -118.3257, 33.2983 ] ] ], [ [ [ -114.6757, 33.184 ], [ -114.7041, 33.1841 ], [ -114.7042, 33.1927 ], [ -114.7391, 33.1929 ], [ -114.7391, 33.2521 ], [ -114.7753, 33.2547 ], [ -114.7732, 33.4337 ], [ -115.2593, 33.4287 ], [ -115.2591, 33.5157 ], [ -115.363, 33.5157 ], [ -115.363, 33.5965 ], [ -115.468, 33.6849 ], [ -115.5713, 33.6849 ], [ -115.5714, 33.7723 ], [ -115.6688, 33.7727 ], [ -115.6689, 33.8559 ], [ -115.7727, 33.8568 ], [ -115.7732, 34.0352 ], [ -115.9839, 34.0351 ], [ -115.9839, 33.9898 ], [ -116.0226, 33.9901 ], [ -116.0188, 34.0197 ], [ -116.0364, 34.0197 ], [ -116.037, 34.0344 ], [ -116.4056, 34.0329 ], [ -116.406, 33.8594 ], [ -116.4237, 33.8594 ], [ -116.4237, 33.8451 ], [ -116.406, 33.8454 ], [ -116.406, 33.787 ], [ -116.3881, 33.7871 ], [ -116.3882, 33.8049 ], [ -116.3535, 33.7843 ], [ -116.3489, 33.758 ], [ -116.3385, 33.758 ], [ -116.3385, 33.7727 ], [ -116.3043, 33.7599 ], [ -116.3038, 33.7144 ], [ -116.3211, 33.6994 ], [ -116.3386, 33.6993 ], [ -116.3388, 33.5982 ], [ -116.3196, 33.5982 ], [ -116.3193, 33.4274 ], [ -116.3886, 33.4275 ], [ -116.3909, 33.6416 ], [ -116.4949, 33.6414 ], [ -116.495, 33.656 ], [ -116.5121, 33.6559 ], [ -116.5122, 33.6849 ], [ -116.6149, 33.685 ], [ -116.6146, 33.701 ], [ -116.6495, 33.7014 ], [ -116.6623, 33.7013 ], [ -116.6579, 33.6942 ], [ -116.6843, 33.7011 ], [ -116.6844, 33.6865 ], [ -116.8767, 33.6863 ], [ -116.8752, 33.4555 ], [ -116.8232, 33.4554 ], [ -116.8231, 33.4269 ], [ -117.2413, 33.4319 ], [ -117.2415, 33.4488 ], [ -117.3708, 33.4906 ], [ -117.3641, 33.5049 ], [ -117.5097, 33.5052 ], [ -117.5031, 33.5198 ], [ -117.5099, 33.5197 ], [ -117.5101, 33.5341 ], [ -117.4612, 33.5977 ], [ -117.5562, 33.5928 ], [ -117.5562, 33.5997 ], [ -117.6766, 33.5981 ], [ -117.6904, 33.6046 ], [ -117.6989, 33.5921 ], [ -117.713, 33.5915 ], [ -117.7126, 33.5556 ], [ -117.7033, 33.5407 ], [ -117.7192, 33.5124 ], [ -117.7557, 33.5128 ], [ -117.7843, 33.5415 ], [ -117.8147, 33.5506 ], [ -117.8725, 33.5927 ], [ -117.8813, 33.594 ], [ -117.8796, 33.5881 ], [ -117.9312, 33.6058 ], [ -117.9413, 33.6205 ], [ -118.0063, 33.653 ], [ -118.0871, 33.7297 ], [ -118.1, 33.7264 ], [ -118.0938, 33.734 ], [ -118.0851, 33.7312 ], [ -118.0883, 33.7354 ], [ -118.0965, 33.7383 ], [ -118.102, 33.7275 ], [ -118.0999, 33.7353 ], [ -118.1221, 33.7367 ], [ -118.1166, 33.7439 ], [ -118.1178, 33.7436 ], [ -118.122, 33.7374 ], [ -118.1223, 33.7373 ], [ -118.1179, 33.7437 ], [ -118.1236, 33.7476 ], [ -118.1758, 33.764 ], [ -118.1999, 33.7585 ], [ -118.1876, 33.7518 ], [ -118.186, 33.7385 ], [ -118.1945, 33.7366 ], [ -118.1852, 33.7329 ], [ -118.2049, 33.7385 ], [ -118.1924, 33.743 ], [ -118.1973, 33.7512 ], [ -118.199, 33.7439 ], [ -118.213, 33.7477 ], [ -118.2066, 33.7403 ], [ -118.2156, 33.7464 ], [ -118.2074, 33.7563 ], [ -118.2076, 33.763 ], [ -118.2137, 33.7564 ], [ -118.2216, 33.7641 ], [ -118.2185, 33.7537 ], [ -118.2456, 33.7507 ], [ -118.2392, 33.7496 ], [ -118.2422, 33.7438 ], [ -118.2173, 33.7445 ], [ -118.2433, 33.7432 ], [ -118.249, 33.7559 ], [ -118.2408, 33.7583 ], [ -118.2455, 33.7639 ], [ -118.2206, 33.7827 ], [ -118.2276, 33.79 ], [ -118.2224, 33.8045 ], [ -118.2265, 33.8293 ], [ -118.2301, 33.7926 ], [ -118.2375, 33.8005 ], [ -118.2586, 33.7994 ], [ -118.2567, 33.8048 ], [ -118.2831, 33.7976 ], [ -118.2997, 33.8028 ], [ -118.2992, 33.8463 ], [ -118.2861, 33.8462 ], [ -118.2906, 33.8588 ], [ -118.2816, 33.8628 ], [ -118.2821, 33.9232 ], [ -118.2302, 33.9288 ], [ -118.234, 33.9533 ], [ -118.2474, 33.9543 ], [ -118.2536, 33.9433 ], [ -118.2564, 33.9895 ], [ -118.2303, 33.9892 ], [ -118.2236, 33.9962 ], [ -118.204, 33.9831 ], [ -118.2036, 33.9967 ], [ -118.1723, 33.9862 ], [ -118.1768, 33.9969 ], [ -118.1701, 33.9996 ], [ -118.1935, 34.0094 ], [ -118.1926, 34.0618 ], [ -118.1652, 34.0612 ], [ -118.1553, 34.0986 ], [ -118.1781, 34.0987 ], [ -118.177, 34.1122 ], [ -118.168, 34.1239 ], [ -118.1276, 34.118 ], [ -118.1312, 34.1297 ], [ -118.1138, 34.1329 ], [ -118.11, 34.1416 ], [ -118.0955, 34.1416 ], [ -118.0859, 34.1314 ], [ -118.0789, 34.1405 ], [ -118.0861, 34.1457 ], [ -118.0678, 34.1503 ], [ -118.0656, 34.1724 ], [ -118.0774, 34.1776 ], [ -118.0783, 34.1617 ], [ -118.0812, 34.1616 ], [ -118.0782, 34.1728 ], [ -118.0842, 34.1651 ], [ -118.0904, 34.1788 ], [ -118.0982, 34.1789 ], [ -118.1005, 34.1968 ], [ -118.1068, 34.1933 ], [ -118.0983, 34.1756 ], [ -118.095, 34.1756 ], [ -118.0983, 34.1676 ], [ -118.1422, 34.1816 ], [ -118.1696, 34.1815 ], [ -118.1717, 34.1893 ], [ -118.1595, 34.2 ], [ -118.1634, 34.2152 ], [ -118.1787, 34.2154 ], [ -118.1791, 34.2226 ], [ -118.187, 34.2232 ], [ -118.1869, 34.2515 ], [ -118.1953, 34.2515 ], [ -118.1982, 34.2361 ], [ -118.1841, 34.2161 ], [ -118.1674, 34.2023 ], [ -118.1812, 34.1867 ], [ -118.1741, 34.1827 ], [ -118.1964, 34.1799 ], [ -118.2167, 34.1978 ], [ -118.215, 34.2067 ], [ -118.2331, 34.2079 ], [ -118.2487, 34.2231 ], [ -118.2385, 34.2815 ], [ -118.2868, 34.2785 ], [ -118.2863, 34.2928 ], [ -118.2995, 34.2934 ], [ -118.2995, 34.2861 ], [ -118.3547, 34.2788 ], [ -118.3858, 34.2848 ], [ -118.3874, 34.2988 ], [ -118.4049, 34.2856 ], [ -118.4109, 34.2912 ], [ -118.4012, 34.2971 ], [ -118.4055, 34.3079 ], [ -118.3963, 34.3199 ], [ -118.4052, 34.3298 ], [ -118.4159, 34.3245 ], [ -118.5038, 34.3373 ], [ -118.534, 34.3145 ], [ -118.5463, 34.3173 ], [ -118.5407, 34.2989 ], [ -118.5687, 34.2946 ], [ -118.5872, 34.3031 ], [ -118.5961, 34.2746 ], [ -118.6335, 34.2697 ], [ -118.6299, 34.2386 ], [ -118.647, 34.2381 ], [ -118.6584, 34.2235 ], [ -118.6532, 34.2129 ], [ -118.6679, 34.2093 ], [ -118.6682, 34.195 ], [ -118.6566, 34.1967 ], [ -118.6575, 34.1898 ], [ -118.6682, 34.1913 ], [ -118.6682, 34.1768 ], [ -118.6586, 34.1767 ], [ -118.6586, 34.1694 ], [ -118.6291, 34.1472 ], [ -118.6149, 34.1493 ], [ -118.5648, 34.1302 ], [ -118.5992, 34.0743 ], [ -118.5704, 34.0693 ], [ -118.5671, 34.0412 ], [ -118.7447, 34.0324 ], [ -118.7856, 34.0209 ], [ -118.8071, 34.0002 ], [ -118.8542, 34.0343 ], [ -118.9372, 34.0433 ], [ -119.0855, 34.0985 ], [ -119.1157, 34.0963 ], [ -119.1984, 34.1433 ], [ -119.2163, 34.1438 ], [ -119.2672, 34.2351 ], [ -119.2704, 34.2463 ], [ -119.2617, 34.2405 ], [ -119.2585, 34.2464 ], [ -119.2677, 34.2534 ], [ -119.2682, 34.2505 ], [ -119.2713, 34.2477 ], [ -119.2724, 34.2478 ], [ -119.2824, 34.2701 ], [ -119.3338, 34.2886 ], [ -119.3704, 34.3198 ], [ -119.3903, 34.3178 ], [ -119.4269, 34.3514 ], [ -119.431, 34.3497 ], [ -119.4349, 34.3501 ], [ -119.428, 34.3521 ], [ -119.4324, 34.3553 ], [ -119.4428, 34.3552 ], [ -119.4444, 34.3473 ], [ -119.4456, 34.3468 ], [ -119.4429, 34.3552 ], [ -119.4599, 34.3737 ], [ -119.5081, 34.3841 ], [ -119.5625, 34.4147 ], [ -119.6124, 34.4209 ], [ -119.6696, 34.4162 ], [ -119.7093, 34.3953 ], [ -119.796, 34.4181 ], [ -119.8361, 34.4154 ], [ -119.8442, 34.4042 ], [ -119.8782, 34.4068 ], [ -119.9196, 34.4322 ], [ -119.9567, 34.4355 ], [ -120.0073, 34.4604 ], [ -120.0886, 34.4602 ], [ -120.1408, 34.4735 ], [ -120.2951, 34.4706 ], [ -120.3422, 34.4586 ], [ -120.4431, 34.4514 ], [ -120.4527, 34.4421 ], [ -120.4721, 34.4485 ], [ -120.4787, 34.4793 ], [ -120.5124, 34.5237 ], [ -120.5289, 34.5333 ], [ -120.4944, 34.5341 ], [ -120.4927, 34.5747 ], [ -120.4575, 34.568 ], [ -120.3565, 34.5074 ], [ -120.2685, 34.5142 ], [ -120.2222, 34.4995 ], [ -120.1999, 34.5025 ], [ -120.2, 34.509 ], [ -120.1563, 34.509 ], [ -120.156, 34.5236 ], [ -119.881, 34.5226 ], [ -119.8816, 34.5579 ], [ -119.8636, 34.5432 ], [ -119.8162, 34.547 ], [ -119.7977, 34.5564 ], [ -119.7633, 34.5992 ], [ -119.7643, 34.7343 ], [ -119.4438, 34.7334 ], [ -119.4441, 34.9011 ], [ -119.3828, 34.9007 ], [ -119.3828, 34.8797 ], [ -119.2771, 34.8798 ], [ -119.2775, 34.8711 ], [ -119.0296, 34.8704 ], [ -119.0308, 34.8415 ], [ -118.8893, 34.8402 ], [ -118.8896, 34.8272 ], [ -118.8462, 34.8266 ], [ -118.7975, 34.8099 ], [ -118.7982, 34.8316 ], [ -118.7738, 34.8486 ], [ -118.6364, 34.9051 ], [ -118.6363, 35.0264 ], [ -118.6296, 35.0352 ], [ -118.7058, 35.0885 ], [ -118.7345, 35.0966 ], [ -118.7352, 35.1653 ], [ -118.7179, 35.1655 ], [ -118.7179, 35.1805 ], [ -118.7006, 35.1805 ], [ -118.7018, 35.4425 ], [ -118.7982, 35.4421 ], [ -118.7992, 35.6588 ], [ -119.2224, 35.6599 ], [ -119.2335, 35.7074 ], [ -119.2585, 35.7072 ], [ -119.2586, 35.7178 ], [ -119.2763, 35.7177 ], [ -119.2762, 35.7323 ], [ -119.2941, 35.7322 ], [ -119.294, 35.7469 ], [ -119.3407, 35.7468 ], [ -119.3573, 35.7952 ], [ -119.3579, 35.9388 ], [ -119.3711, 35.9388 ], [ -119.3711, 35.9533 ], [ -119.4289, 35.953 ], [ -119.4288, 36.051 ], [ -119.4825, 36.051 ], [ -119.4827, 36.1377 ], [ -119.4749, 36.1377 ], [ -119.475, 36.1598 ], [ -119.5291, 36.167 ], [ -119.5293, 36.2111 ], [ -119.5629, 36.2112 ], [ -119.5568, 36.2385 ], [ -119.5634, 36.2407 ], [ -119.5631, 36.2567 ], [ -119.5535, 36.2841 ], [ -119.7272, 36.2838 ], [ -119.727, 36.3718 ], [ -119.5291, 36.3722 ], [ -119.5289, 36.3869 ], [ -119.4844, 36.3858 ], [ -119.4571, 36.4005 ], [ -119.4568, 36.4152 ], [ -119.4389, 36.415 ], [ -119.4388, 36.4294 ], [ -119.3857, 36.429 ], [ -119.3857, 36.4438 ], [ -119.3229, 36.4434 ], [ -119.3225, 36.487 ], [ -119.2325, 36.486 ], [ -119.2325, 36.4789 ], [ -119.2201, 36.4788 ], [ -119.1527, 36.4252 ], [ -119.1528, 36.4138 ], [ -119.1168, 36.4137 ], [ -119.1168, 36.4717 ], [ -119.0721, 36.472 ], [ -119.0722, 36.4854 ], [ -119.0544, 36.4856 ], [ -119.0526, 36.5845 ], [ -118.8996, 36.5858 ], [ -118.9195, 36.5987 ], [ -118.9005, 36.6205 ], [ -118.8785, 36.6237 ], [ -118.8203, 36.6585 ], [ -118.815, 36.6689 ], [ -118.7788, 36.681 ], [ -118.7197, 36.6727 ], [ -118.6899, 36.638 ], [ -118.6345, 36.6364 ], [ -118.6115, 36.625 ], [ -118.6033, 36.6107 ], [ -118.5824, 36.6133 ], [ -118.5752, 36.5977 ], [ -118.5308, 36.5929 ], [ -118.4843, 36.6345 ], [ -118.4756, 36.669 ], [ -118.4529, 36.6773 ], [ -118.4495, 36.6856 ], [ -118.4307, 36.6847 ], [ -118.427, 36.698 ], [ -118.4075, 36.7007 ], [ -118.3767, 36.6969 ], [ -118.3468, 36.6724 ], [ -118.3333, 36.6728 ], [ -118.329, 36.667 ], [ -118.337, 36.6539 ], [ -118.3179, 36.6399 ], [ -118.3215, 36.6283 ], [ -118.2761, 36.5994 ], [ -118.2937, 36.5794 ], [ -118.2916, 36.5596 ], [ -118.2651, 36.5517 ], [ -118.2492, 36.5374 ], [ -118.2483, 36.5229 ], [ -118.2381, 36.5216 ], [ -118.2421, 36.4997 ], [ -118.235, 36.4936 ], [ -118.2504, 36.4837 ], [ -118.2156, 36.4565 ], [ -118.2115, 36.4312 ], [ -118.1844, 36.4261 ], [ -118.1564, 36.4327 ], [ -118.139, 36.418 ], [ -118.1419, 36.4032 ], [ -118.1603, 36.3976 ], [ -118.1638, 36.3893 ], [ -118.1315, 36.3708 ], [ -118.1224, 36.3501 ], [ -118.1015, 36.346 ], [ -118.0982, 36.3316 ], [ -118.115, 36.3204 ], [ -118.1103, 36.3092 ], [ -118.1281, 36.2995 ], [ -118.1277, 36.2818 ], [ -118.1051, 36.2333 ], [ -118.1081, 36.2166 ], [ -118.0585, 36.17 ], [ -118.0596, 36.1498 ], [ -118.0738, 36.1398 ], [ -118.0668, 36.1189 ], [ -118.0319, 36.119 ], [ -118.032, 36.1296 ], [ -117.8726, 36.1303 ], [ -117.714, 36.2027 ], [ -117.6006, 36.2899 ], [ -117.7341, 36.464 ], [ -117.8768, 36.4622 ], [ -117.8738, 36.6145 ], [ -117.9329, 36.648 ], [ -118.0735, 37.0718 ], [ -118.2234, 37.2605 ], [ -118.1961, 37.3766 ], [ -118.3134, 37.376 ], [ -118.313, 37.4483 ], [ -118.5681, 37.4454 ], [ -118.4996, 37.4052 ], [ -118.4293, 37.4179 ], [ -118.368, 37.4119 ], [ -118.3419, 37.3854 ], [ -118.3426, 37.3652 ], [ -118.33, 37.3572 ], [ -118.3273, 37.3371 ], [ -118.3104, 37.3183 ], [ -118.3081, 37.2983 ], [ -118.3178, 37.2864 ], [ -118.2983, 37.247 ], [ -118.3001, 37.2343 ], [ -118.2676, 37.1908 ], [ -118.2895, 37.188 ], [ -118.2896, 37.1735 ], [ -118.3079, 37.1735 ], [ -118.308, 37.159 ], [ -118.4214, 37.1604 ], [ -118.4212, 37.1463 ], [ -118.5305, 37.1458 ], [ -118.5335, 37.1118 ], [ -118.5651, 37.1137 ], [ -118.568, 37.1232 ], [ -118.5854, 37.1239 ], [ -118.5928, 37.1382 ], [ -118.6543, 37.1412 ], [ -118.6731, 37.1676 ], [ -118.6641, 37.1785 ], [ -118.6748, 37.1975 ], [ -119.0769, 37.1853 ], [ -119.0783, 37.0385 ], [ -119.223, 37.0393 ], [ -119.2235, 37.0681 ], [ -119.3322, 37.0679 ], [ -119.3323, 37.0969 ], [ -119.4044, 37.0969 ], [ -119.4043, 37.1569 ], [ -119.3897, 37.1493 ], [ -119.3753, 37.1568 ], [ -119.3303, 37.2065 ], [ -119.3379, 37.2195 ], [ -119.322, 37.2533 ], [ -119.3324, 37.2748 ], [ -119.3269, 37.292 ], [ -119.3354, 37.3114 ], [ -119.3169, 37.3231 ], [ -119.3269, 37.3351 ], [ -119.3119, 37.3407 ], [ -119.3141, 37.3526 ], [ -119.023, 37.5861 ], [ -119.0346, 37.6042 ], [ -119.031, 37.6275 ], [ -119.0545, 37.6452 ], [ -119.0651, 37.6845 ], [ -119.1179, 37.7303 ], [ -119.1837, 37.7395 ], [ -119.1995, 37.7359 ], [ -119.2162, 37.714 ], [ -119.243, 37.7285 ], [ -119.2574, 37.725 ], [ -119.2684, 37.7394 ], [ -119.2891, 37.7467 ], [ -119.2942, 37.7661 ], [ -119.3116, 37.7793 ], [ -119.3134, 37.7941 ], [ -119.3483, 37.804 ], [ -119.3554, 37.8127 ], [ -119.3514, 37.8247 ], [ -119.3693, 37.828 ], [ -119.3754, 37.8412 ], [ -119.403, 37.8338 ], [ -119.4046, 37.8502 ], [ -119.4261, 37.8571 ], [ -119.4281, 37.8657 ], [ -119.4454, 37.8588 ], [ -119.443, 37.8672 ], [ -119.4543, 37.8713 ], [ -119.4754, 37.8588 ], [ -119.4936, 37.8634 ], [ -119.5005, 38.159 ], [ -119.5082, 38.1525 ], [ -119.507, 38.137 ], [ -119.5469, 38.1437 ], [ -119.5464, 38.1541 ], [ -119.577, 38.1577 ], [ -119.5863, 38.1848 ], [ -119.629, 38.196 ], [ -119.625, 38.229 ], [ -119.6054, 38.2389 ], [ -119.6218, 38.2526 ], [ -119.6133, 38.2616 ], [ -119.6514, 38.2865 ], [ -119.6423, 38.2942 ], [ -119.6449, 38.321 ], [ -119.6278, 38.348 ], [ -119.6355, 38.354 ], [ -119.6065, 38.3678 ], [ -119.6208, 38.3953 ], [ -119.6019, 38.4056 ], [ -119.5837, 38.3967 ], [ -119.143, 38.4045 ], [ -118.0779, 37.6431 ], [ -118.0764, 37.5503 ], [ -118.099, 37.5503 ], [ -118.0977, 37.4635 ], [ -117.9501, 37.4644 ], [ -117.9492, 37.3772 ], [ -117.7668, 37.3775 ], [ -117.7671, 37.4163 ], [ -116.988, 36.8376 ], [ -116.212, 36.2472 ], [ -115.4082, 35.6208 ], [ -114.7562, 35.1011 ], [ -114.7561, 34.9825 ], [ -114.7325, 34.9825 ], [ -114.7321, 34.7345 ], [ -114.5126, 34.7347 ], [ -114.4713, 34.7128 ], [ -114.4508, 34.6673 ], [ -114.4581, 34.6573 ], [ -114.4428, 34.6443 ], [ -114.4381, 34.6205 ], [ -114.4249, 34.6104 ], [ -114.4244, 34.6014 ], [ -114.4357, 34.5934 ], [ -114.4068, 34.5718 ], [ -114.3803, 34.5272 ], [ -114.386, 34.4573 ], [ -114.3738, 34.447 ], [ -114.3354, 34.45 ], [ -114.3265, 34.4375 ], [ -114.2961, 34.4226 ], [ -114.2886, 34.4064 ], [ -114.263, 34.4003 ], [ -114.2275, 34.365 ], [ -114.1761, 34.3488 ], [ -114.1572, 34.3175 ], [ -114.1387, 34.3036 ], [ -114.1308, 34.2621 ], [ -114.165, 34.2596 ], [ -114.1647, 34.2512 ], [ -114.2253, 34.2035 ], [ -114.2301, 34.1866 ], [ -114.2575, 34.173 ], [ -114.2872, 34.1708 ], [ -114.3251, 34.1363 ], [ -114.352, 34.1332 ], [ -114.3668, 34.1185 ], [ -114.4166, 34.1071 ], [ -114.4343, 34.0871 ], [ -114.4388, 34.0214 ], [ -114.4659, 34.0109 ], [ -114.4589, 33.995 ], [ -114.4996, 33.9621 ], [ -114.5227, 33.9542 ], [ -114.5345, 33.9379 ], [ -114.535, 33.9256 ], [ -114.508, 33.9038 ], [ -114.5259, 33.9008 ], [ -114.503, 33.8677 ], [ -114.53, 33.8571 ], [ -114.5199, 33.8254 ], [ -114.5281, 33.8147 ], [ -114.5052, 33.7626 ], [ -114.512, 33.7336 ], [ -114.4942, 33.7099 ], [ -114.4968, 33.6968 ], [ -114.525, 33.6853 ], [ -114.5316, 33.6738 ], [ -114.514, 33.6594 ], [ -114.5332, 33.6517 ], [ -114.5237, 33.636 ], [ -114.5313, 33.6247 ], [ -114.5219, 33.6117 ], [ -114.5407, 33.5909 ], [ -114.5242, 33.5529 ], [ -114.5587, 33.5321 ], [ -114.5679, 33.5103 ], [ -114.5915, 33.4994 ], [ -114.6225, 33.4576 ], [ -114.6282, 33.4305 ], [ -114.6381, 33.4203 ], [ -114.6541, 33.4128 ], [ -114.688, 33.4179 ], [ -114.7254, 33.4053 ], [ -114.7077, 33.3832 ], [ -114.6982, 33.3525 ], [ -114.7069, 33.3247 ], [ -114.7313, 33.3021 ], [ -114.7224, 33.2873 ], [ -114.6824, 33.2748 ], [ -114.6723, 33.2599 ], [ -114.6895, 33.2463 ], [ -114.6731, 33.2226 ], [ -114.6757, 33.184 ] ] ], [ [ [ -117.9149, 33.7888 ], [ -117.9239, 33.7988 ], [ -117.9412, 33.7923 ], [ -117.9414, 33.8032 ], [ -117.9632, 33.8031 ], [ -117.9589, 33.8289 ], [ -117.9676, 33.8276 ], [ -117.9676, 33.8104 ], [ -117.9955, 33.8156 ], [ -118.0173, 33.8099 ], [ -118.0109, 33.8217 ], [ -118.0174, 33.8245 ], [ -117.9804, 33.8395 ], [ -117.9849, 33.8577 ], [ -117.9248, 33.8538 ], [ -117.9199, 33.8631 ], [ -117.9068, 33.8632 ], [ -117.9067, 33.8539 ], [ -117.8832, 33.8597 ], [ -117.885, 33.8536 ], [ -117.8688, 33.8577 ], [ -117.8651, 33.8685 ], [ -117.8234, 33.8609 ], [ -117.8041, 33.8743 ], [ -117.786, 33.8624 ], [ -117.7458, 33.8787 ], [ -117.7446, 33.8705 ], [ -117.7145, 33.8663 ], [ -117.6932, 33.8738 ], [ -117.6686, 33.8662 ], [ -117.6973, 33.8402 ], [ -117.688, 33.8338 ], [ -117.7061, 33.8234 ], [ -117.7206, 33.83 ], [ -117.7273, 33.8454 ], [ -117.7472, 33.8258 ], [ -117.8017, 33.8388 ], [ -117.8226, 33.8334 ], [ -117.8363, 33.847 ], [ -117.8507, 33.8471 ], [ -117.86, 33.8427 ], [ -117.8814, 33.793 ], [ -117.9149, 33.7888 ] ] ], [ [ [ -117.3521, 33.8726 ], [ -117.3531, 33.8834 ], [ -117.3313, 33.8883 ], [ -117.3313, 33.9019 ], [ -117.3835, 33.9016 ], [ -117.3836, 33.8871 ], [ -117.465, 33.8898 ], [ -117.4719, 33.8824 ], [ -117.487, 33.8879 ], [ -117.4976, 33.883 ], [ -117.5146, 33.9092 ], [ -117.5121, 33.941 ], [ -117.5237, 33.9457 ], [ -117.5238, 33.9537 ], [ -117.4028, 33.9763 ], [ -117.392, 33.9963 ], [ -117.3645, 34.0195 ], [ -117.3716, 34.0194 ], [ -117.3638, 34.0267 ], [ -117.3671, 34.0384 ], [ -117.3568, 34.0496 ], [ -117.3657, 34.0578 ], [ -117.3659, 34.0832 ], [ -117.3256, 34.0955 ], [ -117.3093, 34.085 ], [ -117.3049, 34.0712 ], [ -117.2875, 34.0636 ], [ -117.2871, 34.0508 ], [ -117.2735, 34.0484 ], [ -117.2868, 34.0448 ], [ -117.2878, 34.0336 ], [ -117.2701, 34.0412 ], [ -117.2704, 34.0187 ], [ -117.296, 34.0192 ], [ -117.2909, 34.0365 ], [ -117.2993, 34.0448 ], [ -117.331, 34.0441 ], [ -117.3375, 34.0338 ], [ -117.3282, 34.0378 ], [ -117.3269, 34.0321 ], [ -117.3508, 34.0142 ], [ -117.3048, 34.0047 ], [ -117.3093, 33.9974 ], [ -117.3311, 33.9938 ], [ -117.3094, 33.9937 ], [ -117.305, 33.9863 ], [ -117.3138, 33.9539 ], [ -117.2789, 33.9426 ], [ -117.2788, 33.9315 ], [ -117.2889, 33.9314 ], [ -117.283, 33.9169 ], [ -117.3138, 33.9159 ], [ -117.3194, 33.9092 ], [ -117.3137, 33.8984 ], [ -117.292, 33.9041 ], [ -117.2921, 33.8877 ], [ -117.3139, 33.8881 ], [ -117.3139, 33.873 ], [ -117.3521, 33.8726 ] ] ], [ [ [ -116.8916, 33.9034 ], [ -116.8941, 33.9109 ], [ -116.9116, 33.9106 ], [ -116.9116, 33.918 ], [ -116.9293, 33.918 ], [ -116.9292, 33.9035 ], [ -116.9462, 33.9037 ], [ -116.9468, 33.9596 ], [ -116.9294, 33.9688 ], [ -116.9206, 33.9398 ], [ -116.9107, 33.9398 ], [ -116.9101, 33.9556 ], [ -116.9043, 33.963 ], [ -116.8966, 33.9601 ], [ -116.9118, 33.9827 ], [ -116.9295, 33.9762 ], [ -116.9336, 34.0048 ], [ -116.9143, 34.0044 ], [ -116.9164, 33.9884 ], [ -116.9131, 33.9873 ], [ -116.9118, 34.0125 ], [ -116.8945, 34.0232 ], [ -116.8945, 34.034 ], [ -116.8771, 34.034 ], [ -116.877, 34.0196 ], [ -116.9031, 34.0124 ], [ -116.9032, 33.9834 ], [ -116.8945, 33.9834 ], [ -116.8945, 33.9689 ], [ -116.877, 33.9472 ], [ -116.8596, 33.9472 ], [ -116.8593, 33.9326 ], [ -116.8244, 33.9399 ], [ -116.8246, 33.9303 ], [ -116.8418, 33.9279 ], [ -116.8419, 33.9072 ], [ -116.8767, 33.9108 ], [ -116.8763, 33.9036 ], [ -116.8916, 33.9034 ] ] ], [ [ [ -117.9071, 34.1067 ], [ -117.9077, 34.1143 ], [ -117.9208, 34.1144 ], [ -117.9254, 34.107 ], [ -117.9382, 34.1144 ], [ -117.9382, 34.1217 ], [ -117.9294, 34.1216 ], [ -117.9294, 34.1405 ], [ -117.9443, 34.1378 ], [ -117.9296, 34.151 ], [ -117.9423, 34.1543 ], [ -117.9423, 34.1652 ], [ -117.8901, 34.1651 ], [ -117.8901, 34.1328 ], [ -117.8814, 34.1271 ], [ -117.8994, 34.1212 ], [ -117.9061, 34.107 ], [ -117.8902, 34.1107 ], [ -117.8873, 34.1068 ], [ -117.9071, 34.1067 ] ] ], [ [ [ -116.7702, 34.2071 ], [ -116.9966, 34.2078 ], [ -116.996, 34.2945 ], [ -116.927, 34.2947 ], [ -116.927, 34.2876 ], [ -116.909, 34.2876 ], [ -116.9089, 34.2946 ], [ -116.8226, 34.2943 ], [ -116.8225, 34.3087 ], [ -116.8049, 34.3086 ], [ -116.8048, 34.2941 ], [ -116.7704, 34.2938 ], [ -116.7702, 34.2507 ], [ -116.7527, 34.2506 ], [ -116.7528, 34.2289 ], [ -116.7701, 34.2289 ], [ -116.7702, 34.2071 ] ] ] ] } },
{ "type": "Feature", "properties": { "utility": "PACIFICORP", "utility_name": "Pacific Power" }, "geometry": { "type": "Polygon", "coordinates": [ [ [ -119.9992, 41.9945 ], [ -119.999, 41.8275 ], [ -120.258, 41.8291 ], [ -120.257, 41.6089 ], [ -119.999, 41.6114 ], [ -119.9995, 41.4887 ], [ -120.1695, 41.489 ], [ -120.2271, 41.4548 ], [ -120.2299, 41.3868 ], [ -120.3761, 41.3849 ], [ -120.4468, 41.3666 ], [ -120.6064, 41.3593 ], [ -120.6099, 41.3366 ], [ -121.446, 41.3349 ], [ -121.4443, 41.1822 ], [ -121.9374, 41.1822 ], [ -121.9441, 40.8749 ], [ -122.6263, 40.877 ], [ -122.6094, 40.8827 ], [ -122.6, 40.9002 ], [ -122.6127, 40.921 ], [ -122.601, 40.9729 ], [ -122.5891, 40.9852 ], [ -122.5691, 40.985 ], [ -122.5535, 41.0037 ], [ -122.5373, 41.0027 ], [ -122.5277, 41.0148 ], [ -122.5297, 41.0384 ], [ -122.5219, 41.0539 ], [ -122.54, 41.0726 ], [ -122.5131, 41.0888 ], [ -122.4932, 41.0862 ], [ -122.4574, 41.0966 ], [ -122.4462, 41.1331 ], [ -122.4458, 41.1568 ], [ -122.4538, 41.1663 ], [ -122.4989, 41.18 ], [ -122.4948, 41.1923 ], [ -122.5229, 41.2135 ], [ -122.512, 41.2265 ], [ -122.5178, 41.239 ], [ -122.5078, 41.2457 ], [ -122.5139, 41.2798 ], [ -122.4997, 41.2921 ], [ -122.5028, 41.3093 ], [ -122.4791, 41.3197 ], [ -122.5033, 41.3332 ], [ -122.5047, 41.3434 ], [ -122.5355, 41.3413 ], [ -122.5523, 41.362 ], [ -122.5726, 41.3686 ], [ -122.586, 41.3579 ], [ -122.581, 41.3371 ], [ -122.5886, 41.3274 ], [ -122.6278, 41.3318 ], [ -122.6453, 41.325 ], [ -122.6527, 41.2891 ], [ -122.6636, 41.2918 ], [ -122.6812, 41.2779 ], [ -122.7125, 41.2743 ], [ -122.7244, 41.248 ], [ -122.7766, 41.2311 ], [ -122.7798, 41.219 ], [ -122.8018, 41.2033 ], [ -122.8262, 41.2097 ], [ -122.8457, 41.2 ], [ -122.8862, 41.2052 ], [ -122.9291, 41.1786 ], [ -122.9614, 41.1814 ], [ -122.9519, 41.1506 ], [ -122.9653, 41.1381 ], [ -122.9593, 41.1238 ], [ -122.9738, 41.1109 ], [ -122.9714, 41.091 ], [ -122.9527, 41.0741 ], [ -122.9233, 41.0719 ], [ -122.8971, 41.0294 ], [ -122.9176, 40.9939 ], [ -122.9414, 40.9925 ], [ -122.9523, 41.0068 ], [ -122.9813, 41.0144 ], [ -123.0372, 41.0042 ], [ -123.055, 41.0463 ], [ -123.0965, 41.0595 ], [ -123.1094, 41.0756 ], [ -123.1926, 41.0774 ], [ -123.2034, 41.0717 ], [ -123.2453, 41.078 ], [ -123.2736, 41.1228 ], [ -123.2839, 41.1233 ], [ -123.2951, 41.1406 ], [ -123.3248, 41.1416 ], [ -123.3304, 41.1526 ], [ -123.3533, 41.1631 ], [ -123.381, 41.1516 ], [ -123.41, 41.1808 ], [ -123.4352, 41.213 ], [ -123.4343, 41.223 ], [ -123.4551, 41.2364 ], [ -123.4427, 41.2512 ], [ -123.4439, 41.273 ], [ -123.4619, 41.2825 ], [ -123.4556, 41.2928 ], [ -123.4596, 41.3101 ], [ -123.4787, 41.3298 ], [ -123.4824, 41.3537 ], [ -123.4741, 41.366 ], [ -123.4993, 41.3824 ], [ -123.7702, 41.3808 ], [ -123.7708, 41.4641 ], [ -124.0651, 41.4646 ], [ -124.0851, 41.5244 ], [ -124.0808, 41.547 ], [ -124.1016, 41.5699 ], [ -124.101, 41.6027 ], [ -124.1159, 41.6151 ], [ -124.12, 41.6405 ], [ -124.1356, 41.6574 ], [ -124.149, 41.7208 ], [ -124.1689, 41.7428 ], [ -124.1853, 41.7394 ], [ -124.1811, 41.7448 ], [ -124.1938, 41.7498 ], [ -124.1997, 41.7463 ], [ -124.1945, 41.7367 ], [ -124.2394, 41.7708 ], [ -124.2541, 41.7704 ], [ -124.2483, 41.7737 ], [ -124.2559, 41.783 ], [ -124.2232, 41.8353 ], [ -124.2037, 41.9357 ], [ -124.1968, 41.9142 ], [ -124.1602, 41.9091 ], [ -124.1974, 41.9171 ], [ -124.1959, 41.9406 ], [ -124.2101, 41.9506 ], [ -124.2049, 41.9812 ], [ -124.2115, 41.9985 ], [ -123.657, 41.9951 ], [ -123.146, 42.0092 ], [ -122.894, 42.0026 ], [ -122.3782, 42.0095 ], [ -121.0353, 41.9933 ], [ -119.9992, 41.9945 ] ] ] } },
{ "type": "Feature", "properties": { "utility": "SDGE", "utility_name": "San Diego Gas & Electric Company" }, "geometry": { "type": "Polygon", "coordinates": [ [ [ -117.6867, 33.6028 ], [ -117.5562, 33.5997 ], [ -117.5562, 33.5928 ], [ -117.4614, 33.5975 ], [ -117.5102, 33.5341 ], [ -117.5099, 33.5194 ], [ -117.5031, 33.5198 ], [ -117.5098, 33.5052 ], [ -117.363, 33.5051 ], [ -117.3695, 33.4907 ], [ -117.2405, 33.4487 ], [ -117.2403, 33.4319 ], [ -116.0843, 33.426 ], [ -116.0804, 33.0744 ], [ -116.1025, 33.0745 ], [ -116.1053, 32.6185 ], [ -117.1247, 32.5343 ], [ -117.1375, 32.6204 ], [ -117.1679, 32.6698 ], [ -117.1941, 32.6858 ], [ -117.2036, 32.6715 ], [ -117.2449, 32.6672 ], [ -117.2584, 32.7254 ], [ -117.2548, 32.7876 ], [ -117.2823, 32.8327 ], [ -117.2789, 32.8476 ], [ -117.2648, 32.8491 ], [ -117.2553, 32.8618 ], [ -117.2552, 32.9061 ], [ -117.2814, 33.016 ], [ -117.3288, 33.1234 ], [ -117.5072, 33.3341 ], [ -117.5955, 33.387 ], [ -117.6443, 33.438 ], [ -117.6798, 33.4578 ], [ -117.7183, 33.459 ], [ -117.7575, 33.5129 ], [ -117.7193, 33.5127 ], [ -117.7028, 33.5446 ], [ -117.7125, 33.5558 ], [ -117.7068, 33.5836 ], [ -117.7129, 33.5916 ], [ -117.6988, 33.592 ], [ -117.6867, 33.6028 ] ] ] } },
{ "type": "Feature", "properties": { "utility": "Liberty", "utility_name": "Liberty Utilities" }, "geometry": { "type": "MultiPolygon", "coordinates": [ [ [ [ -120.0741, 39.7088 ], [ -120.074, 39.6228 ], [ -120.0159, 39.6216 ], [ -120.0158, 39.6366 ], [ -120.0014, 39.6366 ], [ -120.0042, 39.0008 ], [ -119.265, 38.4913 ], [ -119.7705, 38.4884 ], [ -119.7789, 38.5283 ], [ -119.7979, 38.5347 ], [ -119.806, 38.5466 ], [ -119.8214, 38.5445 ], [ -119.8416, 38.5544 ], [ -119.863, 38.5937 ], [ -119.9037, 38.5935 ], [ -119.9096, 38.6305 ], [ -119.9269, 38.6491 ], [ -119.9459, 38.6493 ], [ -119.9564, 38.6728 ], [ -119.9828, 38.665 ], [ -119.9984, 38.7094 ], [ -120.0372, 38.7388 ], [ -120.036, 38.7574 ], [ -120.0165, 38.7859 ], [ -120.0228, 38.8091 ], [ -120.0509, 38.8456 ], [ -120.0741, 38.8542 ], [ -120.14, 38.8523 ], [ -120.1412, 38.8894 ], [ -120.1599, 38.9265 ], [ -120.1416, 38.9567 ], [ -120.2383, 39.0279 ], [ -120.2099, 39.0342 ], [ -120.208, 39.0464 ], [ -120.2317, 39.0716 ], [ -120.2678, 39.134 ], [ -120.269, 39.1728 ], [ -120.2911, 39.2232 ], [ -120.2875, 39.2433 ], [ -120.2973, 39.2696 ], [ -120.3389, 39.317 ], [ -120.1047, 39.3173 ], [ -120.1045, 39.375 ], [ -120.3098, 39.3742 ], [ -120.3098, 39.3609 ], [ -120.3439, 39.3617 ], [ -120.3451, 39.4183 ], [ -120.4553, 39.4189 ], [ -120.4557, 39.448 ], [ -120.5114, 39.4483 ], [ -120.5115, 39.5495 ], [ -120.3443, 39.5489 ], [ -120.344, 39.5328 ], [ -120.3073, 39.5332 ], [ -120.307, 39.6219 ], [ -120.2963, 39.622 ], [ -120.296, 39.6651 ], [ -120.252, 39.6649 ], [ -120.2531, 39.6887 ], [ -120.212, 39.6867 ], [ -120.2123, 39.7081 ], [ -120.0741, 39.7088 ] ] ], [ [ [ -120.4399, 39.8254 ], [ -120.4397, 39.782 ], [ -120.5095, 39.7774 ], [ -120.5096, 39.8214 ], [ -120.4399, 39.8254 ] ] ] ] } },
{ "type": "Feature", "properties": { "utility": "BVES", "utility_name": "Bear Valley Electric Services" }, "geometry": { "type": "Polygon", "coordinates": [ [ [ -116.7529, 34.229 ], [ -116.7702, 34.2292 ], [ -116.7705, 34.2075 ], [ -116.9968, 34.208 ], [ -116.9965, 34.2949 ], [ -116.9272, 34.2947 ], [ -116.9272, 34.2876 ], [ -116.909, 34.2875 ], [ -116.909, 34.2946 ], [ -116.8226, 34.2944 ], [ -116.8225, 34.3089 ], [ -116.8048, 34.3089 ], [ -116.8048, 34.2944 ], [ -116.7702, 34.2941 ], [ -116.7702, 34.2363 ], [ -116.7529, 34.2364 ], [ -116.7529, 34.229 ] ] ] } }
]
}
